STARLINK-30600          
1 58100U 23161D   26068.57561683 -.00000026  00000+0  11243-4 0  9993
2 58100  53.1609 166.0889 0001272 107.9519 252.1621 15.30187522134407
EXO-0                   
1 59175U 23174DK  26068.71046781  .00011582  00000+0  36716-3 0  9992
2 59175  97.3864 148.9039 0009878 157.1125 203.0559 15.32821991129797
